{
  "type": "FeatureCollection",
  "features": [
    {
      "type": "Feature",
      "properties": {
        "norad_id": 34854,
        "name": "COSMOS 2251 DEB",
        "group": "cosmos-2251-debris",
        "lat": -49.5752648485371,
        "lon": -27.659732253265055,
        "alt_km": 600.4626823693261,
        "timestamp": "2025-12-25T22:42:17.408422+00:00",
        "meta_object_name": "COSMOS 2251 DEB",
        "meta_object_id": "1993-036ABY",
        "meta_epoch": "2025-12-24T03:22:47.701632",
        "meta_mean_motion": 14.76734417,
        "meta_eccentricity": 0.00659344,
        "meta_inclination": 74.0296,
        "meta_ra_of_asc_node": 136.2324,
        "meta_arg_of_pericenter": 245.6439,
        "meta_mean_anomaly": 113.7843,
        "meta_ephemeris_type": 0,
        "meta_classification_type": "U",
        "meta_norad_cat_id": 34854,
        "meta_element_set_no": 999,
        "meta_rev_at_epoch": 72050,
        "meta_bstar": 0.00083194152,
        "meta_mean_motion_dot": 6.009e-05,
        "meta_mean_motion_ddot": 0,
        "tle_line1": "1 34854U 93036ABY 25358.14082988  .00006009  00000+0  83194-3 0  9990",
        "tle_line2": "2 34854  74.0296 136.2324 0065934 245.6439 113.7843 14.76734417720500"
      },
      "geometry": {
        "type": "Point",
        "coordinates": [
          -27.659732253265055,
          -49.5752648485371
        ]
      }
    },
    {
      "type": "Feature",
      "properties": {
        "norad_id": 34856,
        "name": "COSMOS 2251 DEB",
        "group": "cosmos-2251-debris",
        "lat": -72.39632923303306,
        "lon": -7.090600123956575,
        "alt_km": 551.1134153117027,
        "timestamp": "2025-12-25T22:42:17.408432+00:00",
        "meta_object_name": "COSMOS 2251 DEB",
        "meta_object_id": "1993-036ACA",
        "meta_epoch": "2025-12-24T22:21:30.996000",
        "meta_mean_motion": 15.06656764,
        "meta_eccentricity": 0.003106,
        "meta_inclination": 73.996,
        "meta_ra_of_asc_node": 59.7657,
        "meta_arg_of_pericenter": 195.18,
        "meta_mean_anomaly": 341.9359,
        "meta_ephemeris_type": 0,
        "meta_classification_type": "U",
        "meta_norad_cat_id": 34856,
        "meta_element_set_no": 999,
        "meta_rev_at_epoch": 89295,
        "meta_bstar": 0.0017148,
        "meta_mean_motion_dot": 0.00025776,
        "meta_mean_motion_ddot": 0,
        "tle_line1": "1 34856U 93036ACA 25358.93160875  .00025776  00000+0  17148-2 0  9998",
        "tle_line2": "2 34856  73.9960  59.7657 0031060 195.1800 341.9359 15.06656764892958"
      },
      "geometry": {
        "type": "Point",
        "coordinates": [
          -7.090600123956575,
          -72.39632923303306
        ]
      }
    },
    {
      "type": "Feature",
      "properties": {
        "norad_id": 34857,
        "name": "COSMOS 2251 DEB",
        "group": "cosmos-2251-debris",
        "lat": -13.292666829642833,
        "lon": -94.47913171458528,
        "alt_km": 655.0666136136597,
        "timestamp": "2025-12-25T22:42:17.408442+00:00",
        "meta_object_name": "COSMOS 2251 DEB",
        "meta_object_id": "1993-036ACB",
        "meta_epoch": "2025-12-25T15:55:36.329952",
        "meta_mean_motion": 14.59017565,
        "meta_eccentricity": 0.0065215,
        "meta_inclination": 74.0153,
        "meta_ra_of_asc_node": 82.1763,
        "meta_arg_of_pericenter": 204.2198,
        "meta_mean_anomaly": 306.8371,
        "meta_ephemeris_type": 0,
        "meta_classification_type": "U",
        "meta_norad_cat_id": 34857,
        "meta_element_set_no": 999,
        "meta_rev_at_epoch": 88089,
        "meta_bstar": 0.0010841,
        "meta_mean_motion_dot": 5.218e-05,
        "meta_mean_motion_ddot": 0,
        "tle_line1": "1 34857U 93036ACB 25359.66361493  .00005218  00000+0  10841-2 0  9991",
        "tle_line2": "2 34857  74.0153  82.1763 0065215 204.2198 306.8371 14.59017565880895"
      },
      "geometry": {
        "type": "Point",
        "coordinates": [
          -94.47913171458528,
          -13.292666829642833
        ]
      }
    },
    {
      "type": "Feature",
      "properties": {
        "norad_id": 34859,
        "name": "COSMOS 2251 DEB",
        "group": "cosmos-2251-debris",
        "lat": -34.858361319172296,
        "lon": -59.361634223371574,
        "alt_km": 521.3501314782734,
        "timestamp": "2025-12-25T22:42:17.408452+00:00",
        "meta_object_name": "COSMOS 2251 DEB",
        "meta_object_id": "1993-036ACD",
        "meta_epoch": "2025-12-25T03:55:54.017760",
        "meta_mean_motion": 15.16596022,
        "meta_eccentricity": 0.0001286,
        "meta_inclination": 74.0314,
        "meta_ra_of_asc_node": 313.7742,
        "meta_arg_of_pericenter": 32.3004,
        "meta_mean_anomaly": 342.3183,
        "meta_ephemeris_type": 0,
        "meta_classification_type": "U",
        "meta_norad_cat_id": 34859,
        "meta_element_set_no": 999,
        "meta_rev_at_epoch": 88547,
        "meta_bstar": 0.0039257,
        "meta_mean_motion_dot": 0.00077507,
        "meta_mean_motion_ddot": 0,
        "tle_line1": "1 34859U 93036ACD 25359.16381965  .00077507  00000+0  39257-2 0  9996",
        "tle_line2": "2 34859  74.0314 313.7742 0001286  32.3004 342.3183 15.16596022885479"
      },
      "geometry": {
        "type": "Point",
        "coordinates": [
          -59.361634223371574,
          -34.858361319172296
        ]
      }
    },
    {
      "type": "Feature",
      "properties": {
        "norad_id": 34861,
        "name": "COSMOS 2251 DEB",
        "group": "cosmos-2251-debris",
        "lat": -16.230452434171184,
        "lon": 19.07194564513889,
        "alt_km": 555.9091446877537,
        "timestamp": "2025-12-25T22:42:17.408462+00:00",
        "meta_object_name": "COSMOS 2251 DEB",
        "meta_object_id": "1993-036ACF",
        "meta_epoch": "2025-12-24T08:30:51.111936",
        "meta_mean_motion": 15.03272413,
        "meta_eccentricity": 0.00083388,
        "meta_inclination": 74.0171,
        "meta_ra_of_asc_node": 27.1111,
        "meta_arg_of_pericenter": 15.9962,
        "meta_mean_anomaly": 358.949,
        "meta_ephemeris_type": 0,
        "meta_classification_type": "U",
        "meta_norad_cat_id": 34861,
        "meta_element_set_no": 999,
        "meta_rev_at_epoch": 88267,
        "meta_bstar": 0.002836129,
        "meta_mean_motion_dot": 0.00038649,
        "meta_mean_motion_ddot": 0,
        "tle_line1": "1 34861U 93036ACF 25358.35475824  .00038649  00000+0  28361-2 0  9995",
        "tle_line2": "2 34861  74.0171  27.1111 0008338  15.9962 358.9490 15.03272413882678"
      },
      "geometry": {
        "type": "Point",
        "coordinates": [
          19.07194564513889,
          -16.230452434171184
        ]
      }
    },
    {
      "type": "Feature",
      "properties": {
        "norad_id": 34874,
        "name": "COSMOS 2251 DEB",
        "group": "cosmos-2251-debris",
        "lat": 9.47747251715413,
        "lon": 52.24963574559717,
        "alt_km": 753.9402662164357,
        "timestamp": "2025-12-25T22:42:17.408472+00:00",
        "meta_object_name": "COSMOS 2251 DEB",
        "meta_object_id": "1993-036ACM",
        "meta_epoch": "2025-12-24T22:24:14.356800",
        "meta_mean_motion": 14.36365151,
        "meta_eccentricity": 0.0050509,
        "meta_inclination": 74.0391,
        "meta_ra_of_asc_node": 51.3701,
        "meta_arg_of_pericenter": 72.6657,
        "meta_mean_anomaly": 104.1751,
        "meta_ephemeris_type": 0,
        "meta_classification_type": "U",
        "meta_norad_cat_id": 34874,
        "meta_element_set_no": 999,
        "meta_rev_at_epoch": 87219,
        "meta_bstar": 0.00083514,
        "meta_mean_motion_dot": 2.455e-05,
        "meta_mean_motion_ddot": 0,
        "tle_line1": "1 34874U 93036ACM 25358.93349950  .00002455  00000+0  83514-3 0  9991",
        "tle_line2": "2 34874  74.0391  51.3701 0050509  72.6657 104.1751 14.36365151872192"
      },
      "geometry": {
        "type": "Point",
        "coordinates": [
          52.24963574559717,
          9.47747251715413
        ]
      }
    },
    {
      "type": "Feature",
      "properties": {
        "norad_id": 34875,
        "name": "COSMOS 2251 DEB",
        "group": "cosmos-2251-debris",
        "lat": -54.53539482470778,
        "lon": 109.79220261948862,
        "alt_km": 727.6714865173954,
        "timestamp": "2025-12-25T22:42:17.408482+00:00",
        "meta_object_name": "COSMOS 2251 DEB",
        "meta_object_id": "1993-036ACN",
        "meta_epoch": "2025-12-24T15:33:22.942944",
        "meta_mean_motion": 14.48965081,
        "meta_eccentricity": 0.00162603,
        "meta_inclination": 74.0438,
        "meta_ra_of_asc_node": 135.9032,
        "meta_arg_of_pericenter": 258.7537,
        "meta_mean_anomaly": 116.0666,
        "meta_ephemeris_type": 0,
        "meta_classification_type": "U",
        "meta_norad_cat_id": 34875,
        "meta_element_set_no": 999,
        "meta_rev_at_epoch": 87928,
        "meta_bstar": 0.00046663388,
        "meta_mean_motion_dot": 1.744e-05,
        "meta_mean_motion_ddot": 0,
        "tle_line1": "1 34875U 93036ACN 25358.64818221  .00001744  00000+0  46663-3 0  9996",
        "tle_line2": "2 34875  74.0438 135.9032 0016260 258.7537 116.0666 14.48965081879286"
      },
      "geometry": {
        "type": "Point",
        "coordinates": [
          109.79220261948862,
          -54.53539482470778
        ]
      }
    }
  ]
}